ONEWEB-0597             
1 54663U 22166X   24170.55717337  .00000070  00000+0  13914-3 0  9990
2 54663  87.9292  29.0211 0001841  95.7609 264.3735 13.21826184 75286
ONEWEB-0600             
1 54664U 22166Y   24170.61552225  .00000037  00000+0  58236-4 0  9991
2 54664  87.9286  29.0496 0001895  91.1231 269.0120 13.21826664 75266
ONEWEB-0601             
1 54665U 22166Z   24170.60763735  .00000017  00000+0  10456-4 0  9991
2 54665  87.9294  29.0155 0001540  99.9072 260.2236 13.21826476 75457
ONEWEB-0602             
1 54666U 22166AA  24170.57295182  .00000079  00000+0  16056-3 0  9993
2 54666  87.9293  29.0265 0001777  96.6689 263.4647 13.21826136 75295
ONEWEB-0603             
1 54667U 22166AB  24170.57767791  .00000046  00000+0  80267-4 0  9994
2 54667  87.9298  29.0270 0001733  97.5684 262.5647 13.21825204 75222
ONEWEB-0604             
1 54668U 22166AC  24170.56504825 -.00000187  00000+0 -48470-3 0  9998
2 54668  87.9286  29.0091 0002149  88.2599 271.8781 13.21825018 75185
ONEWEB-0605             
1 54669U 22166AD  24170.55875430  .00000041  00000+0  68502-4 0  9997
2 54669  87.9286  29.0431 0001391 101.6035 258.5255 13.21826118 75255
